COSMOS 2251 DEB         
1 33932U 93036EM  26074.28655858  .00001165  00000+0  38249-3 0  9998
2 33932  74.0335 145.1926 0036830 204.2864 155.6556 14.39059508893296
COSMOS 2251 DEB         
1 33933U 93036EN  26074.16942624  .00000906  00000+0  32604-3 0  9997
2 33933  74.0865 251.6364 0072226 237.3086 122.1088 14.33722618891094
COSMOS 2251 DEB         
1 33934U 93036EP  26074.28853977  .00003293  00000+0  69214-3 0  9992
2 33934  74.0363 284.1170 0014704  20.0950 340.0792 14.59934240900894
COSMOS 2251 DEB         
1 33936U 93036ER  26074.09607533  .00003874  00000+0  79162-3 0  9996
2 33936  74.0165 220.8671 0028072 347.5300  12.5168 14.60972390902382
COSMOS 2251 DEB         
1 33938U 93036ET  26074.25582906  .00001916  00000+0  53130-3 0  9994
2 33938  74.0465  34.3858 0014219  99.2657  17.6006 14.47186641897387
COSMOS 2251 DEB         
1 33939U 93036EU  26074.17652356  .00085152  00000+0  50098-2 0  9996
2 33939  74.0024 250.9296 0002428 281.2935  78.7984 15.11205763901436
COSMOS 2251 DEB         
1 33940U 93036EV  26073.96135426  .00004443  00000+0  93458-3 0  9990
2 33940  74.0415 327.7563 0009421  20.7551 354.3272 14.59812245899396
COSMOS 2251 DEB         
1 33942U 93036EX  26074.25357346  .00000492  00000+0  17046-3 0  9991
2 33942  74.0340 104.4317 0020240 173.9348 262.0475 14.38132238894646
COSMOS 2251 DEB         
1 33944U 93036EZ  26074.24373299  .00000804  00000+0  25741-3 0  9995
2 33944  74.0397 138.7100 0114111 216.8368 201.5293 14.37563406893571
COSMOS 2251 DEB         
1 33945U 93036FA  26074.24472957  .00000266  00000+0  10307-3 0  9991
2 33945  74.0291 136.7604 0023282 206.9790 153.0154 14.34683576893428
COSMOS 2251 DEB         
1 33948U 93036FD  26074.20660405  .00000401  00000+0  14721-3 0  9992
2 33948  74.0349 135.4696 0023623 195.8203 164.2215 14.35746510893506
COSMOS 2251 DEB         
1 33971U 93036FE  26074.27858264  .00000731  00000+0  24036-3 0  9993
2 33971  74.0225  82.6817 0018461 170.7210 204.4833 14.39911957894717
COSMOS 2251 DEB         
1 33972U 93036FF  26074.29436559  .00004187  00000+0  12870-2 0  9996
2 33972  73.9963  20.0280 0125147 167.9551 319.5304 14.37428848884036
COSMOS 2251 DEB         
1 33973U 93036FG  26074.06791262  .00000421  00000+0  12572-3 0  9994
2 33973  74.0072 290.4904 0045040  86.9930  33.5521 14.45497171899348
COSMOS 2251 DEB         
1 33975U 93036FJ  26074.00972213  .00000680  00000+0  40460-3 0  9991
2 33975  73.7995 282.2398 0189954  38.9337 322.5298 14.00688367871215
COSMOS 2251 DEB         
1 33980U 93036FP  26073.94799146  .00003709  00000+0  78626-3 0  9991
2 33980  74.0184 243.5559 0028448   1.1843 161.2305 14.59310263901399
