[{"OBJECT_NAME":"COSMOS 2251 DEB","OBJECT_ID":"1993-036EM","EPOCH":"2026-03-15T06:52:38.661312","MEAN_MOTION":14.39059508,"ECCENTRICITY":0.00368304,"INCLINATION":74.0335,"RA_OF_ASC_NODE":145.1926,"ARG_OF_PERICENTER":204.2864,"MEAN_ANOMALY":155.6556,"EPHEMERIS_TYPE":0,"CLASSIFICATION_TYPE":"U","NORAD_CAT_ID":33932,"ELEMENT_SET_NO":999,"REV_AT_EPOCH":89329,"BSTAR":0.0003824887,"MEAN_MOTION_DOT":1.165e-5,"MEAN_MOTION_DDOT":0},{"OBJECT_NAME":"COSMOS 2251 DEB","OBJECT_ID":"1993-036EN","EPOCH":"2026-03-15T04:03:58.427136","MEAN_MOTION":14.33722618,"ECCENTRICITY":0.00722265,"INCLINATION":74.0865,"RA_OF_ASC_NODE":251.6364,"ARG_OF_PERICENTER":237.3086,"MEAN_ANOMALY":122.1088,"EPHEMERIS_TYPE":0,"CLASSIFICATION_TYPE":"U","NORAD_CAT_ID":33933,"ELEMENT_SET_NO":999,"REV_AT_EPOCH":89109,"BSTAR":0.00032603505,"MEAN_MOTION_DOT":9.06e-6,"MEAN_MOTION_DDOT":0},{"OBJECT_NAME":"COSMOS 2251 DEB","OBJECT_ID":"1993-036EP","EPOCH":"2026-03-15T06:55:29.836128","MEAN_MOTION":14.5993424,"ECCENTRICITY":0.00147042,"INCLINATION":74.0363,"RA_OF_ASC_NODE":284.117,"ARG_OF_PERICENTER":20.095,"MEAN_ANOMALY":340.0792,"EPHEMERIS_TYPE":0,"CLASSIFICATION_TYPE":"U","NORAD_CAT_ID":33934,"ELEMENT_SET_NO":999,"REV_AT_EPOCH":90089,"BSTAR":0.00069213605,"MEAN_MOTION_DOT":3.293e-5,"MEAN_MOTION_DDOT":0},{"OBJECT_NAME":"COSMOS 2251 DEB","OBJECT_ID":"1993-036ER","EPOCH":"2026-03-15T02:18:20.908512","MEAN_MOTION":14.6097239,"ECCENTRICITY":0.00280727,"INCLINATION":74.0165,"RA_OF_ASC_NODE":220.8671,"ARG_OF_PERICENTER":347.53,"MEAN_ANOMALY":12.5168,"EPHEMERIS_TYPE":0,"CLASSIFICATION_TYPE":"U","NORAD_CAT_ID":33936,"ELEMENT_SET_NO":999,"REV_AT_EPOCH":90238,"BSTAR":0.00079161907,"MEAN_MOTION_DOT":3.874e-5,"MEAN_MOTION_DDOT":0},{"OBJECT_NAME":"COSMOS 2251 DEB","OBJECT_ID":"1993-036ET","EPOCH":"2026-03-15T06:08:23.630784","MEAN_MOTION":14.47186641,"ECCENTRICITY":0.00142191,"INCLINATION":74.0465,"RA_OF_ASC_NODE":34.3858,"ARG_OF_PERICENTER":99.2657,"MEAN_ANOMALY":17.6006,"EPHEMERIS_TYPE":0,"CLASSIFICATION_TYPE":"U","NORAD_CAT_ID":33938,"ELEMENT_SET_NO":999,"REV_AT_EPOCH":89738,"BSTAR":0.00053129571,"MEAN_MOTION_DOT":1.916e-5,"MEAN_MOTION_DDOT":0},{"OBJECT_NAME":"COSMOS 2251 DEB","OBJECT_ID":"1993-036EU","EPOCH":"2026-03-15T04:14:11.635584","MEAN_MOTION":15.11205763,"ECCENTRICITY":0.00024284,"INCLINATION":74.0024,"RA_OF_ASC_NODE":250.9296,"ARG_OF_PERICENTER":281.2935,"MEAN_ANOMALY":78.7984,"EPHEMERIS_TYPE":0,"CLASSIFICATION_TYPE":"U","NORAD_CAT_ID":33939,"ELEMENT_SET_NO":999,"REV_AT_EPOCH":90143,"BSTAR":0.005009816,"MEAN_MOTION_DOT":0.00085152,"MEAN_MOTION_DDOT":0},{"OBJECT_NAME":"COSMOS 2251 DEB","OBJECT_ID":"1993-036EV","EPOCH":"2026-03-14T23:04:21.008064","MEAN_MOTION":14.59812245,"ECCENTRICITY":0.00094214,"INCLINATION":74.0415,"RA_OF_ASC_NODE":327.7563,"ARG_OF_PERICENTER":20.7551,"MEAN_ANOMALY":354.3272,"EPHEMERIS_TYPE":0,"CLASSIFICATION_TYPE":"U","NORAD_CAT_ID":33940,"ELEMENT_SET_NO":999,"REV_AT_EPOCH":89939,"BSTAR":0.00093458183,"MEAN_MOTION_DOT":4.443e-5,"MEAN_MOTION_DDOT":0},{"OBJECT_NAME":"COSMOS 2251 DEB","OBJECT_ID":"1993-036EX","EPOCH":"2026-03-15T06:05:08.746944","MEAN_MOTION":14.38132238,"ECCENTRICITY":0.00202401,"INCLINATION":74.034,"RA_OF_ASC_NODE":104.4317,"ARG_OF_PERICENTER":173.9348,"MEAN_ANOMALY":262.0475,"EPHEMERIS_TYPE":0,"CLASSIFICATION_TYPE":"U","NORAD_CAT_ID":33942,"ELEMENT_SET_NO":999,"REV_AT_EPOCH":89464,"BSTAR":0.00017045784,"MEAN_MOTION_DOT":4.92e-6,"MEAN_MOTION_DDOT":0},{"OBJECT_NAME":"COSMOS 2251 DEB","OBJECT_ID":"1993-036EZ","EPOCH":"2026-03-15T05:50:58.530336","MEAN_MOTION":14.37563406,"ECCENTRICITY":0.01141111,"INCLINATION":74.0397,"RA_OF_ASC_NODE":138.71,"ARG_OF_PERICENTER":216.8368,"MEAN_ANOMALY":201.5293,"EPHEMERIS_TYPE":0,"CLASSIFICATION_TYPE":"U","NORAD_CAT_ID":33944,"ELEMENT_SET_NO":999,"REV_AT_EPOCH":89357,"BSTAR":0.0002574072,"MEAN_MOTION_DOT":8.04e-6,"MEAN_MOTION_DDOT":0},{"OBJECT_NAME":"COSMOS 2251 DEB","OBJECT_ID":"1993-036FA","EPOCH":"2026-03-15T05:52:24.634848","MEAN_MOTION":14.34683576,"ECCENTRICITY":0.00232829,"INCLINATION":74.0291,"RA_OF_ASC_NODE":136.7604,"ARG_OF_PERICENTER":206.979,"MEAN_ANOMALY":153.0154,"EPHEMERIS_TYPE":0,"CLASSIFICATION_TYPE":"U","NORAD_CAT_ID":33945,"ELEMENT_SET_NO":999,"REV_AT_EPOCH":89342,"BSTAR":0.00010306525,"MEAN_MOTION_DOT":2.66e-6,"MEAN_MOTION_DDOT":0},{"OBJECT_NAME":"COSMOS 2251 DEB","OBJECT_ID":"1993-036FD","EPOCH":"2026-03-15T04:57:30.589920","MEAN_MOTION":14.3574651,"ECCENTRICITY":0.00236236,"INCLINATION":74.0349,"RA_OF_ASC_NODE":135.4696,"ARG_OF_PERICENTER":195.8203,"MEAN_ANOMALY":164.2215,"EPHEMERIS_TYPE":0,"CLASSIFICATION_TYPE":"U","NORAD_CAT_ID":33948,"ELEMENT_SET_NO":999,"REV_AT_EPOCH":89350,"BSTAR":0.00014720696,"MEAN_MOTION_DOT":4.01e-6,"MEAN_MOTION_DDOT":0},{"OBJECT_NAME":"COSMOS 2251 DEB","OBJECT_ID":"1993-036FE","EPOCH":"2026-03-15T06:41:09.540096","MEAN_MOTION":14.39911957,"ECCENTRICITY":0.00184615,"INCLINATION":74.0225,"RA_OF_ASC_NODE":82.6817,"ARG_OF_PERICENTER":170.721,"MEAN_ANOMALY":204.4833,"EPHEMERIS_TYPE":0,"CLASSIFICATION_TYPE":"U","NORAD_CAT_ID":33971,"ELEMENT_SET_NO":999,"REV_AT_EPOCH":89471,"BSTAR":0.0002403599,"MEAN_MOTION_DOT":7.31e-6,"MEAN_MOTION_DDOT":0},{"OBJECT_NAME":"COSMOS 2251 DEB","OBJECT_ID":"1993-036FF","EPOCH":"2026-03-15T07:03:53.186976","MEAN_MOTION":14.37428848,"ECCENTRICITY":0.01251475,"INCLINATION":73.9963,"RA_OF_ASC_NODE":20.028,"ARG_OF_PERICENTER":167.9551,"MEAN_ANOMALY":319.5304,"EPHEMERIS_TYPE":0,"CLASSIFICATION_TYPE":"U","NORAD_CAT_ID":33972,"ELEMENT_SET_NO":999,"REV_AT_EPOCH":88403,"BSTAR":0.0012869507,"MEAN_MOTION_DOT":4.187e-5,"MEAN_MOTION_DDOT":0},{"OBJECT_NAME":"COSMOS 2251 DEB","OBJECT_ID":"1993-036FG","EPOCH":"2026-03-15T01:37:47.650368","MEAN_MOTION":14.45497171,"ECCENTRICITY":0.00450402,"INCLINATION":74.0072,"RA_OF_ASC_NODE":290.4904,"ARG_OF_PERICENTER":86.993,"MEAN_ANOMALY":33.5521,"EPHEMERIS_TYPE":0,"CLASSIFICATION_TYPE":"U","NORAD_CAT_ID":33973,"ELEMENT_SET_NO":999,"REV_AT_EPOCH":89934,"BSTAR":0.00012571594,"MEAN_MOTION_DOT":4.21e-6,"MEAN_MOTION_DDOT":0},{"OBJECT_NAME":"COSMOS 2251 DEB","OBJECT_ID":"1993-036FJ","EPOCH":"2026-03-15T00:13:59.992032","MEAN_MOTION":14.00688367,"ECCENTRICITY":0.01899541,"INCLINATION":73.7995,"RA_OF_ASC_NODE":282.2398,"ARG_OF_PERICENTER":38.9337,"MEAN_ANOMALY":322.5298,"EPHEMERIS_TYPE":0,"CLASSIFICATION_TYPE":"U","NORAD_CAT_ID":33975,"ELEMENT_SET_NO":999,"REV_AT_EPOCH":87121,"BSTAR":0.00040459526,"MEAN_MOTION_DOT":6.8e-6,"MEAN_MOTION_DDOT":0},{"OBJECT_NAME":"COSMOS 2251 DEB","OBJECT_ID":"1993-036FP","EPOCH":"2026-03-14T22:45:06.462144","MEAN_MOTION":14.59310263,"ECCENTRICITY":0.00284481,"INCLINATION":74.0184,"RA_OF_ASC_NODE":243.5559,"ARG_OF_PERICENTER":1.1843,"MEAN_ANOMALY":161.2305,"EPHEMERIS_TYPE":0,"CLASSIFICATION_TYPE":"U","NORAD_CAT_ID":33980,"ELEMENT_SET_NO":999,"REV_AT_EPOCH":90139,"BSTAR":0.00078625945,"MEAN_MOTION_DOT":3.709e-5,"MEAN_MOTION_DDOT":0}]
